{"type":"FeatureCollection","features":[{"type":"Feature","properties":{"layer":"roads"},"geometry":{"type":"LineString","coordinates":[[17.031103,51.1229211],[17.0310976,51.1229623]]}},{"type":"Feature","properties":{"layer":"roads"},"geometry":{"type":"LineString","coordinates":[[17.031103,51.1229211],[17.0310951,51.1228654]]}},{"type":"Feature","properties":{"layer":"roads"},"geometry":{"type":"LineString","coordinates":[[17.031103,51.1229211],[17.0311505,51.1229214],[17.0311641,51.1229207],[17.0311777,51.1229201],[17.0311908,51.1229227],[17.0312038,51.1229254],[17.0312169,51.122928],[17.03123,51.1229306],[17.031243,51.1229332],[17.0312561,51.1229359],[17.0312691,51.1229385],[17.0312822,51.1229411],[17.0312953,51.1229437],[17.0313083,51.1229464],[17.0313214,51.122949],[17.0313328,51.1229526],[17.0313443,51.1229562],[17.0313557,51.1229598],[17.0313671,51.1229634],[17.0313786,51.122967],[17.03139,51.1229706],[17.0314014,51.1229742],[17.0314129,51.1229778],[17.0314243,51.1229814],[17.0314346,51.1229869],[17.0314449,51.1229923],[17.0314552,51.1229978],[17.0314654,51.1230032],[17.0314757,51.1230087],[17.031486,51.1230142],[17.0314963,51.1230196],[17.0315066,51.1230251],[17.0315135,51.1230325],[17.0315203,51.1230399],[17.0315272,51.1230472],[17.0315341,51.1230546],[17.0315409,51.123062],[17.0315478,51.1230694],[17.0315546,51.1230768],[17.0315615,51.1230842],[17.0315684,51.1230915],[17.0315752,51.1230989],[17.0315821,51.1231063],[17.031588,51.1231144],[17.031594,51.1231226],[17.0315999,51.1231307],[17.0316059,51.1231389],[17.0316118,51.123147],[17.0316177,51.1231551],[17.0316237,51.1231633],[17.0316296,51.1231714],[17.0316355,51.1231795],[17.0316415,51.1231877],[17.0316474,51.1231958],[17.0316534,51.123204],[17.0316593,51.1232121],[17.0316652,51.1232202],[17.0316712,51.1232284],[17.0316771,51.1232365],[17.031683,51.1232446],[17.031689,51.1232528],[17.0316949,51.1232609],[17.0317009,51.1232691],[17.0317068,51.1232772],[17.0317127,51.1232853],[17.0317187,51.1232935],[17.0317246,51.1233016],[17.0317305,51.1233097],[17.0317365,51.1233179],[17.0317424,51.123326],[17.0317484,51.1233342],[17.0317543,51.1233423],[17.0317611,51.1233498],[17.0317679,51.1233573],[17.0317746,51.1233648],[17.0317814,51.1233723],[17.0317882,51.1233797],[17.031795,51.1233872],[17.0318018,51.1233947],[17.0318086,51.1234022],[17.0318154,51.1234097],[17.0318221,51.1234172],[17.0318289,51.1234247],[17.0318357,51.1234322],[17.0318425,51.1234397],[17.0318493,51.1234471],[17.0318561,51.1234546],[17.0318628,51.1234621],[17.0318696,51.1234696],[17.0318764,51.1234771],[17.0318844,51.1234844],[17.0318924,51.1234917],[17.0319003,51.123499],[17.0319083,51.1235062],[17.0319163,51.1235135],[17.0319243,51.1235208],[17.0319322,51.1235281],[17.0319402,51.1235354],[17.0319482,51.1235427],[17.0319562,51.12355],[17.0319642,51.1235573],[17.0319721,51.1235645],[17.0319801,51.1235718],[17.0319881,51.1235791],[17.0319961,51.1235864],[17.0320041,51.1235937],[17.032012,51.123601],[17.03202,51.1236083],[17.032028,51.1236156],[17.032036,51.1236228],[17.0320439,51.1236301],[17.0320519,51.1236374],[17.0320599,51.1236447],[17.0320679,51.1236518],[17.0320758,51.1236589],[17.0320838,51.1236659],[17.0320918,51.123673],[17.0320997,51.1236801],[17.0321077,51.1236872],[17.0321157,51.1236942],[17.0321236,51.1237013],[17.0321316,51.1237084],[17.0321396,51.1237155],[17.0321475,51.1237226],[17.0321545,51.1237502]]}},{"type":"Feature","properties":{"layer":"roads"},"geometry":{"type":"LineString","coordinates":[[17.0310976,51.1229623],[17.0310701,51.1229274],[17.0310571,51.1229292],[17.031044,51.1229309],[17.031031,51.1229327],[17.0310179,51.1229345],[17.0310049,51.1229362],[17.0309918,51.122938],[17.0309788,51.1229398],[17.0309657,51.1229415],[17.0309527,51.1229433],[17.0309396,51.122945],[17.0309266,51.1229468],[17.0309154,51.1229509],[17.0309042,51.1229551],[17.0308929,51.1229592],[17.0308817,51.1229633],[17.0308705,51.1229675],[17.0308592,51.1229716],[17.030848,51.1229758],[17.0308368,51.1229799],[17.0308252,51.1229848],[17.0308135,51.1229898],[17.0308019,51.1229947],[17.0307903,51.1229996],[17.0307787,51.1230046],[17.030767,51.1230095],[17.0307554,51.1230144],[17.0307438,51.1230194],[17.0307321,51.1230243],[17.0307205,51.1230293],[17.0307089,51.1230342],[17.0306973,51.1230391],[17.0306856,51.1230441],[17.030674,51.123049],[17.030665,51.1230558],[17.030656,51.1230627],[17.030647,51.1230695],[17.030638,51.1230763],[17.030629,51.1230832],[17.03062,51.12309],[17.030611,51.1230969],[17.030602,51.1231037],[17.030593,51.1231105],[17.030584,51.1231174],[17.030575,51.1231242],[17.030567,51.1231309],[17.0305589,51.1231375],[17.0305509,51.1231442],[17.0305428,51.1231508],[17.0305348,51.1231575],[17.0305267,51.1231642],[17.0305187,51.1231708],[17.0305107,51.1231775],[17.0305026,51.1231841],[17.0304946,51.1231908],[17.0304865,51.1231974],[17.0304785,51.1232041],[17.0304732,51.1232124],[17.0304679,51.1232206],[17.0304626,51.1232289],[17.0304573,51.1232371],[17.030452,51.1232454],[17.0304467,51.1232536],[17.0304414,51.1232619],[17.0304361,51.1232701],[17.0304308,51.1232784],[17.0304255,51.1232866],[17.0304202,51.1232949],[17.0304149,51.1233031],[17.0304096,51.1233114],[17.0304043,51.1233196],[17.030399,51.1233279],[17.0303937,51.1233361],[17.0303884,51.1233444],[17.0303831,51.1233526],[17.0303778,51.1233609],[17.0303725,51.1233691],[17.0303672,51.1233774],[17.0303619,51.1233856],[17.0303566,51.1233939],[17.0303522,51.1234023],[17.0303479,51.1234107],[17.0303435,51.1234191],[17.0303392,51.1234275],[17.0303348,51.1234359],[17.0303304,51.1234443],[17.0303261,51.1234527],[17.0303217,51.1234611],[17.0303174,51.1234695],[17.030313,51.123478],[17.0303086,51.1234864],[17.0303043,51.1234948],[17.0302999,51.1235032],[17.0302956,51.1235116],[17.0302912,51.12352],[17.0302868,51.1235284],[17.0302825,51.1235368],[17.0302781,51.1235452],[17.0302738,51.1235536],[17.0302694,51.123562],[17.0302665,51.1235706],[17.0302635,51.1235793],[17.0302606,51.1235879],[17.0302576,51.1235965],[17.0302547,51.1236052],[17.0302517,51.1236138],[17.0302488,51.1236225],[17.0302458,51.1236311],[17.0302429,51.1236397],[17.0302399,51.1236484],[17.030237,51.123657],[17.030234,51.1236656],[17.0302311,51.1236743],[17.0302281,51.1236829],[17.0302251,51.1236916],[17.0302222,51.1237002],[17.0302193,51.1237088],[17.0302163,51.1237175],[17.0302134,51.1237261],[17.0302104,51.1237347],[17.0302075,51.1237434],[17.0302045,51.123752],[17.0302016,51.1237606],[17.0301986,51.1237693],[17.0301957,51.1237779],[17.0301927,51.1237866],[17.0301898,51.1237952],[17.0301868,51.1238038],[17.0301839,51.1238125],[17.0301809,51.1238211],[17.0301764,51.1238294],[17.030172,51.1238377],[17.0301675,51.1238461],[17.0301631,51.1238544],[17.0301586,51.1238627],[17.0301542,51.123871],[17.0301497,51.1238794],[17.0301453,51.1238877],[17.0301408,51.123896],[17.0301363,51.1239044],[17.0301319,51.1239127],[17.0301274,51.123921],[17.030123,51.1239293],[17.0301185,51.1239377],[17.0301141,51.123946],[17.0301096,51.1239543],[17.0301052,51.1239626],[17.0301007,51.123971],[17.0300962,51.1239793],[17.0300918,51.1239876],[17.0300873,51.1239959],[17.0300829,51.1240042],[17.0300784,51.1240126],[17.030074,51.1240209],[17.0300695,51.1240292],[17.0300651,51.1240375],[17.0300606,51.1240459],[17.0300561,51.1240542],[17.0300517,51.1240625],[17.0300472,51.1240709],[17.0300428,51.1240792],[17.0300383,51.1240875],[17.030029,51.1241201]]}},{"type":"Feature","properties":{"layer":"roads"},"geometry":{"type":"LineString","coordinates":[[17.030029,51.1241201],[17.0300777,51.1241205],[17.030092,51.1241204],[17.0301063,51.1241203],[17.0301205,51.1241202],[17.0301348,51.1241201],[17.0301491,51.12412],[17.0302086,51.1241154]]}},{"type":"Feature","properties":{"layer":"roads"},"geometry":{"type":"LineString","coordinates":[[17.030029,51.1241201],[17.0299647,51.1241136],[17.0299508,51.1241118],[17.0299368,51.12411],[17.0299229,51.1241082],[17.0299089,51.1241064],[17.029895,51.1241046],[17.0298811,51.1241029],[17.0298671,51.1241011],[17.0298532,51.1240993],[17.0298392,51.1240975],[17.0298253,51.1240957],[17.0298113,51.1240939],[17.0297974,51.1240921],[17.0297834,51.1240903],[17.0297695,51.1240885],[17.029727,51.1240816]]}},{"type":"Feature","properties":{"layer":"roads"},"geometry":{"type":"LineString","coordinates":[[17.030029,51.1241201],[17.0300006,51.1241452],[17.0299942,51.1241529],[17.0299878,51.1241606],[17.0299814,51.1241683],[17.029975,51.124176],[17.0299686,51.1241837],[17.0299622,51.1241914],[17.0299557,51.1241991],[17.0299493,51.1242068],[17.0299429,51.1242145],[17.0299356,51.124222],[17.0299284,51.1242295],[17.0299211,51.124237],[17.0299139,51.1242445],[17.0299066,51.1242521],[17.0298994,51.1242596],[17.0298921,51.1242671],[17.0298849,51.1242746],[17.0298776,51.1242821],[17.0298703,51.1242896],[17.0298631,51.1242971],[17.0298558,51.1243046],[17.0298486,51.1243121],[17.0298413,51.1243196],[17.0298341,51.1243272],[17.0298268,51.1243347],[17.0298196,51.1243422],[17.0298123,51.1243497],[17.0298051,51.1243572],[17.0297978,51.1243647],[17.0297905,51.1243722],[17.0297833,51.1243797],[17.029776,51.1243872],[17.0297688,51.1243948],[17.0297615,51.1244023],[17.0297543,51.1244098],[17.029747,51.1244173],[17.0297398,51.1244248],[17.0297325,51.1244323],[17.0297252,51.1244398],[17.029718,51.1244473],[17.0297107,51.1244548],[17.0297035,51.1244623],[17.0296962,51.1244699],[17.029689,51.1244774],[17.0296817,51.1244849],[17.0296745,51.1244924],[17.0296672,51.1244999],[17.0296619,51.1245071],[17.0296566,51.1245143],[17.0296513,51.1245215],[17.029646,51.1245288],[17.0296407,51.124536],[17.0296354,51.1245432],[17.0296301,51.1245504],[17.0296248,51.1245576],[17.0296208,51.1245658],[17.0296168,51.1245739],[17.0296127,51.1245821],[17.0296087,51.1245902],[17.0296047,51.1245984],[17.0296007,51.1246065],[17.0295966,51.1246147],[17.0295926,51.1246228],[17.0295886,51.124631],[17.0295881,51.1246398],[17.0295876,51.1246485],[17.029587,51.1246573],[17.0295865,51.1246661],[17.029586,51.1246748],[17.0296005,51.124707]]}},{"type":"Feature","properties":{"layer":"roads"},"geometry":{"type":"LineString","coordinates":[[17.0321545,51.1237502],[17.0321114,51.1237505],[17.0320983,51.1237474],[17.0320852,51.1237444],[17.032072,51.1237413],[17.0320589,51.1237382],[17.0320461,51.1237348],[17.0320334,51.1237314],[17.0320206,51.123728],[17.0320079,51.1237245],[17.0319951,51.1237211],[17.0319824,51.1237177],[17.0319696,51.1237143],[17.0319567,51.1237112],[17.0319438,51.1237082],[17.0319308,51.1237051],[17.0319179,51.1237021],[17.031905,51.123699],[17.0318921,51.123696],[17.0318791,51.1236929],[17.0318662,51.1236899],[17.0318533,51.1236868],[17.0318404,51.1236838],[17.0318274,51.1236807],[17.0318145,51.1236777],[17.0318016,51.1236746],[17.0317878,51.1236724],[17.0317739,51.1236703],[17.0317601,51.1236681],[17.0317463,51.1236659],[17.0317325,51.1236638],[17.0317186,51.1236616],[17.0317048,51.1236594],[17.031691,51.1236572],[17.0316771,51.1236551],[17.0316633,51.1236529],[17.0316498,51.1236515],[17.0316364,51.1236501],[17.0316229,51.1236487],[17.0316094,51.1236473],[17.0315538,51.1236385]]}},{"type":"Feature","properties":{"layer":"roads"},"geometry":{"type":"LineString","coordinates":[[17.0321545,51.1237502],[17.0321928,51.123767],[17.032213,51.1237785],[17.032242,51.1237976],[17.0322517,51.1238039],[17.0322614,51.1238103],[17.032271,51.1238167],[17.0322807,51.123823],[17.0322904,51.1238294],[17.0323001,51.1238357],[17.0323097,51.1238421],[17.0323194,51.1238485],[17.0323291,51.1238548],[17.0323388,51.1238612],[17.0323484,51.1238676],[17.0323581,51.1238739],[17.0323678,51.1238803],[17.0323767,51.1238871],[17.0323857,51.123894],[17.0323946,51.1239008],[17.0324035,51.1239076],[17.0324125,51.1239144],[17.0324214,51.1239213],[17.0324303,51.1239281],[17.0324393,51.1239349],[17.0324482,51.1239417],[17.0324571,51.1239486],[17.032466,51.1239554],[17.032475,51.1239622],[17.0324839,51.123969],[17.0324928,51.1239759],[17.0325018,51.1239827],[17.0325107,51.1239895],[17.0325196,51.1239963],[17.0325286,51.1240032],[17.0325375,51.12401],[17.0325456,51.1240165],[17.0325537,51.124023],[17.0325617,51.1240296],[17.0325698,51.1240361],[17.0325779,51.1240426],[17.0325859,51.1240491],[17.032594,51.1240557],[17.0326021,51.1240622],[17.0326086,51.1240697],[17.032615,51.1240772],[17.0326215,51.1240847],[17.0326279,51.1240922],[17.0326344,51.1240997],[17.0326408,51.1241072],[17.0326473,51.1241148],[17.0326537,51.1241223],[17.0326602,51.1241298],[17.0326666,51.1241373],[17.0326731,51.1241448],[17.0326795,51.1241523],[17.032686,51.1241598],[17.0326904,51.1241679],[17.0326948,51.124176],[17.0326992,51.124184],[17.0327037,51.1241921],[17.0327081,51.1242002],[17.0327125,51.1242083],[17.0327169,51.1242164],[17.0327213,51.1242244],[17.0327257,51.1242325],[17.0327301,51.1242406],[17.0327345,51.1242487],[17.032739,51.1242568],[17.0327434,51.1242648],[17.0327478,51.1242729],[17.0327522,51.124281],[17.0327526,51.1242888],[17.0327529,51.1242966],[17.0327546,51.1243296]]}},{"type":"Feature","properties":{"layer":"roads"},"geometry":{"type":"LineString","coordinates":[[17.0324999,51.1243183],[17.0325702,51.1243204],[17.0325824,51.1243228],[17.0325946,51.1243253],[17.0326067,51.1243278],[17.0326189,51.1243302],[17.0326627,51.1243454]]}},{"type":"Feature","properties":{"layer":"roads"},"geometry":{"type":"LineString","coordinates":[[17.0324999,51.1243183],[17.0324706,51.1242977],[17.0324579,51.1242945],[17.0324451,51.1242912],[17.0324324,51.124288],[17.0324196,51.1242848],[17.0324069,51.1242815],[17.0323941,51.1242783],[17.0323799,51.1242774],[17.0323657,51.1242764],[17.0323515,51.1242755],[17.0323373,51.1242745],[17.0323231,51.1242736],[17.0323089,51.1242726],[17.0322947,51.1242717],[17.0322805,51.1242707],[17.0322663,51.1242698],[17.0322521,51.1242688],[17.0322379,51.1242679],[17.0322237,51.1242669],[17.0322095,51.124266],[17.0321952,51.1242659],[17.032181,51.1242657],[17.0321667,51.1242656],[17.0321524,51.1242654],[17.0321381,51.1242653],[17.0321239,51.1242651],[17.0321096,51.124265],[17.0320953,51.1242649],[17.032081,51.1242647],[17.0320667,51.1242646],[17.0320525,51.1242644],[17.0320382,51.1242643],[17.0320239,51.1242641],[17.0320096,51.124264],[17.0319954,51.1242639],[17.0319811,51.1242637],[17.0319668,51.1242636],[17.0319525,51.1242634],[17.0319383,51.1242633],[17.031924,51.1242632],[17.0319097,51.124263],[17.0318955,51.1242629],[17.0318812,51.1242627],[17.0318669,51.1242626],[17.0318526,51.1242624],[17.0318384,51.1242623],[17.0318241,51.1242622],[17.0318098,51.124262],[17.0317955,51.1242619],[17.0317813,51.1242617],[17.031767,51.1242616],[17.0317527,51.1242614],[17.0317384,51.1242613],[17.0317241,51.1242612],[17.0317099,51.124261],[17.0316956,51.1242609],[17.0316813,51.1242607],[17.031667,51.1242606],[17.0316528,51.1242604],[17.0316385,51.1242603],[17.0316245,51.1242595],[17.0316105,51.1242587],[17.0315965,51.124258],[17.0315825,51.1242572],[17.0315685,51.1242564],[17.0315545,51.1242556],[17.0315405,51.1242548],[17.0315264,51.1242541],[17.0315124,51.1242533],[17.0314984,51.1242525],[17.0314844,51.1242517],[17.0314704,51.124251],[17.0314564,51.1242502],[17.0314424,51.1242494],[17.0314284,51.1242486],[17.0314144,51.1242478],[17.0314004,51.1242471],[17.0313864,51.1242463],[17.0313724,51.1242455],[17.0313584,51.1242447],[17.0313443,51.124244],[17.0313303,51.1242432],[17.0313163,51.1242424],[17.0313023,51.1242416],[17.0312883,51.1242408],[17.0312412,51.1242383]]}},{"type":"Feature","properties":{"layer":"roads"},"geometry":{"type":"LineString","coordinates":[[17.0324999,51.1243183],[17.0324587,51.1243422],[17.0324482,51.1243474],[17.0324377,51.1243527],[17.0324273,51.124358],[17.0324168,51.1243632],[17.0324063,51.1243685],[17.0324059,51.1243771],[17.0324055,51.1243857],[17.0324051,51.1243943],[17.0324047,51.124403],[17.0324043,51.1244116],[17.0324039,51.1244202],[17.0324035,51.1244288],[17.032391,51.1244318],[17.0323784,51.1244347],[17.0323659,51.1244377],[17.0323534,51.1244407],[17.0323409,51.1244437],[17.0323283,51.1244466],[17.0322758,51.1244592]]}},{"type":"Feature","properties":{"layer":"roads"},"geometry":{"type":"LineString","coordinates":[[17.0312412,51.1242383],[17.0311909,51.1242323],[17.0311771,51.1242307],[17.0311632,51.1242292],[17.0311494,51.1242276],[17.0311355,51.1242261],[17.0311217,51.1242245],[17.0311078,51.124223],[17.031094,51.1242214],[17.0310801,51.1242199],[17.0310663,51.1242183],[17.0310524,51.1242168],[17.0310386,51.1242152],[17.0310247,51.1242131],[17.0310107,51.1242111],[17.0309968,51.124209],[17.0309828,51.124207],[17.0309689,51.1242049],[17.030955,51.1242029],[17.030941,51.1242008],[17.0309271,51.1241987],[17.0309132,51.1241967],[17.0308992,51.1241946],[17.0308853,51.1241926],[17.0308713,51.1241905],[17.0308574,51.1241885],[17.0308435,51.1241864],[17.0308295,51.1241843],[17.0308156,51.1241823],[17.0308017,51.1241802],[17.0307877,51.1241782],[17.0307738,51.1241761],[17.0307598,51.1241741],[17.0307459,51.124172],[17.0307325,51.1241696],[17.0307191,51.1241673],[17.0307058,51.1241649],[17.0306924,51.1241625],[17.030679,51.1241602],[17.0306656,51.1241578],[17.0306522,51.1241554],[17.0306389,51.124153],[17.0306255,51.1241507],[17.0306121,51.1241483],[17.0305986,51.1241468],[17.0305851,51.1241453],[17.0305717,51.1241437],[17.0305582,51.1241422],[17.0305447,51.1241407],[17.0305312,51.1241392],[17.0305177,51.1241376],[17.0305042,51.1241361],[17.0304908,51.1241346],[17.0304773,51.124133],[17.0304638,51.1241315],[17.0304503,51.12413],[17.0304368,51.1241285],[17.0304234,51.1241269],[17.0304099,51.1241254],[17.0303964,51.1241239],[17.0303828,51.1241236],[17.0303692,51.1241233],[17.0303557,51.124123],[17.0303421,51.1241227],[17.0303285,51.1241224],[17.0303149,51.1241221],[17.0303014,51.1241218],[17.0302878,51.1241215],[17.0302742,51.1241212],[17.0302606,51.1241209],[17.0302086,51.1241154]]}},{"type":"Feature","properties":{"layer":"roads"},"geometry":{"type":"LineString","coordinates":[[17.0312412,51.1242383],[17.0312578,51.1242066],[17.0312607,51.1241986],[17.0312636,51.1241907],[17.0312665,51.1241827],[17.0312693,51.1241747],[17.0312722,51.1241668],[17.0312751,51.1241588],[17.0312803,51.1241508],[17.0312855,51.1241428],[17.0312907,51.1241349],[17.031296,51.1241269],[17.0313012,51.1241189],[17.0313064,51.1241109],[17.0313116,51.124103],[17.0313168,51.124095],[17.031322,51.124087],[17.0313273,51.124079],[17.0313325,51.1240711],[17.0313377,51.1240631],[17.0313429,51.1240551],[17.03135,51.1240474],[17.0313571,51.1240398],[17.0313643,51.1240321],[17.0313714,51.1240245],[17.0313785,51.1240168],[17.0313856,51.1240091],[17.0313928,51.1240015],[17.0313999,51.1239938],[17.031407,51.1239861],[17.0314141,51.1239785],[17.0314213,51.1239708],[17.0314284,51.1239632],[17.0314355,51.1239555],[17.0314419,51.1239475],[17.0314483,51.1239395],[17.0314548,51.1239315],[17.0314612,51.1239235],[17.0314676,51.1239154],[17.031474,51.1239074],[17.0314804,51.1238994],[17.0314869,51.1238914],[17.0314933,51.1238834],[17.0314997,51.1238754],[17.0315037,51.1238681],[17.0315078,51.1238608],[17.0315118,51.1238535],[17.0315159,51.1238461],[17.0315199,51.1238388],[17.031524,51.1238315],[17.031528,51.1238242],[17.0315302,51.1238158],[17.0315324,51.1238075],[17.0315346,51.1237992],[17.0315368,51.1237908],[17.031539,51.1237825],[17.0315412,51.1237741],[17.0315434,51.1237658],[17.0315456,51.1237574],[17.0315478,51.1237491],[17.03155,51.1237407],[17.0315522,51.1237324],[17.0315544,51.123724],[17.0315545,51.1237158],[17.0315546,51.1237076],[17.0315547,51.1236993],[17.0315548,51.1236911],[17.031555,51.1236829],[17.0315551,51.1236747],[17.0315552,51.1236665],[17.0315538,51.1236385]]}},{"type":"Feature","properties":{"layer":"roads"},"geometry":{"type":"LineString","coordinates":[[17.0312412,51.1242383],[17.0312458,51.1242745],[17.0312457,51.1242834],[17.0312455,51.1242924],[17.0312454,51.1243014],[17.0312453,51.1243104],[17.031247,51.1243187],[17.0312487,51.124327],[17.0312504,51.1243353],[17.0312521,51.1243436],[17.0312538,51.1243519],[17.0312555,51.1243602],[17.0312572,51.1243685],[17.0312589,51.1243769],[17.0312606,51.1243852],[17.0312623,51.1243935],[17.031264,51.1244018],[17.0312657,51.1244101],[17.0312674,51.1244184],[17.0312691,51.1244267],[17.0312732,51.1244349],[17.0312772,51.1244432],[17.0312813,51.1244514],[17.0312854,51.1244596],[17.0312894,51.1244678],[17.0312935,51.124476],[17.0312976,51.1244843],[17.0313016,51.1244925],[17.0313057,51.1245007],[17.0313098,51.124509],[17.0313138,51.1245172],[17.0313179,51.1245254],[17.0313236,51.1245331],[17.0313294,51.1245408],[17.0313351,51.1245484],[17.0313408,51.1245561],[17.0313466,51.1245638],[17.0313523,51.1245715],[17.031358,51.1245791],[17.0313638,51.1245868],[17.0313695,51.1245945],[17.031377,51.1246016],[17.0313844,51.1246088],[17.0313919,51.1246159],[17.0313993,51.1246231],[17.0314068,51.1246302],[17.0314142,51.1246374],[17.0314217,51.1246445],[17.0314292,51.1246516],[17.0314366,51.1246588],[17.0314441,51.1246659],[17.0314515,51.1246731],[17.031459,51.1246802],[17.0314665,51.1246873],[17.0314739,51.1246945],[17.0314814,51.1247016],[17.0314888,51.1247088],[17.0314963,51.1247159],[17.0315037,51.1247231],[17.0315112,51.1247302],[17.0315221,51.1247341],[17.0315331,51.124738],[17.0315696,51.1247615]]}},{"type":"Feature","properties":{"layer":"roads"},"geometry":{"type":"LineString","coordinates":[[17.0299383,51.1249799],[17.0298877,51.1249632],[17.0298753,51.1249603],[17.0298629,51.1249575],[17.029851,51.1249531],[17.0298391,51.1249487],[17.0298272,51.1249443],[17.0298152,51.12494],[17.0298033,51.1249356],[17.0297914,51.1249312],[17.0297795,51.1249268],[17.0297701,51.1249203],[17.0297607,51.1249138],[17.0297512,51.1249074],[17.0297418,51.1249009],[17.0297338,51.1248937],[17.0297258,51.1248865],[17.0297179,51.1248793],[17.0297099,51.1248721],[17.0297019,51.124865],[17.0296939,51.1248578],[17.029686,51.1248506],[17.029678,51.1248434],[17.02967,51.1248362],[17.0296633,51.1248288],[17.0296566,51.1248215],[17.0296499,51.1248141],[17.0296432,51.1248068],[17.0296366,51.1247994],[17.0296299,51.1247921],[17.0296232,51.1247847],[17.0296165,51.1247774],[17.0296098,51.12477],[17.0296074,51.1247614],[17.029605,51.1247527],[17.0296026,51.1247441],[17.0296005,51.124707]]}},{"type":"Feature","properties":{"layer":"roads"},"geometry":{"type":"LineString","coordinates":[[17.0299383,51.1249799],[17.0299492,51.1249424],[17.0299521,51.1249344],[17.0299551,51.1249263],[17.0299571,51.1248968]]}},{"type":"Feature","properties":{"layer":"roads"},"geometry":{"type":"LineString","coordinates":[[17.0299383,51.1249799],[17.0299905,51.1249827],[17.0300038,51.1249848],[17.030017,51.1249868],[17.0300303,51.1249889],[17.0300436,51.1249909],[17.030057,51.1249907],[17.0300703,51.1249904],[17.0300837,51.1249901],[17.0300971,51.1249899],[17.0301104,51.1249896],[17.0301238,51.1249894],[17.0301379,51.1249888],[17.0301521,51.1249883],[17.0301662,51.1249878],[17.0301803,51.1249872],[17.0301945,51.1249866],[17.0302086,51.1249861],[17.0302228,51.1249856],[17.0302369,51.124985],[17.0302497,51.124983],[17.0302626,51.124981],[17.0302754,51.1249791],[17.0302882,51.1249771],[17.0303011,51.1249751],[17.0303139,51.1249731],[17.0303267,51.1249712],[17.0303396,51.1249692],[17.0303524,51.1249672],[17.0303651,51.1249636],[17.0303778,51.1249601],[17.0303906,51.1249566],[17.0304033,51.124953],[17.030416,51.1249495],[17.0304287,51.1249459],[17.0304414,51.1249423],[17.0304542,51.1249388],[17.0304669,51.1249353],[17.0304796,51.1249317],[17.0304911,51.1249278],[17.0305026,51.1249238],[17.0305142,51.1249199],[17.0305257,51.1249159],[17.0305372,51.124912],[17.0305487,51.124908],[17.0305603,51.1249041],[17.0305718,51.1249001],[17.0305833,51.1248962],[17.0305937,51.124892],[17.0306042,51.1248878],[17.0306146,51.1248836],[17.0306251,51.1248793],[17.0306355,51.1248751],[17.030646,51.1248709],[17.0306564,51.1248667],[17.0306687,51.1248632],[17.030681,51.1248596],[17.0306934,51.1248561],[17.0307057,51.1248525],[17.030718,51.124849],[17.0307303,51.1248454],[17.0307426,51.1248419],[17.0307549,51.1248383],[17.0307673,51.1248348],[17.0307796,51.1248312],[17.0307919,51.1248277],[17.0308053,51.1248249],[17.0308188,51.1248221],[17.0308322,51.1248193],[17.0308457,51.1248165],[17.0308591,51.1248138],[17.0308726,51.124811],[17.030886,51.1248082],[17.0308994,51.1248054],[17.0309129,51.1248026],[17.0309263,51.1247998],[17.0309398,51.124797],[17.0309532,51.1247943],[17.0309667,51.1247915],[17.0309801,51.1247887],[17.0309936,51.1247859],[17.031007,51.1247831],[17.0310196,51.1247792],[17.0310471,51.1247545]]}},{"type":"Feature","properties":{"layer":"roads"},"geometry":{"type":"LineString","coordinates":[[17.0299383,51.1249799],[17.0299369,51.1250093],[17.0299368,51.125018],[17.0299367,51.1250267],[17.0299366,51.1250354],[17.0299371,51.125044],[17.0299376,51.1250525],[17.0299397,51.1250614],[17.0299426,51.1250905]]}},{"type":"Feature","properties":{"layer":"roads"},"geometry":{"type":"LineString","coordinates":[[17.0310471,51.1247545],[17.0310017,51.124736],[17.0309901,51.1247326],[17.0309786,51.1247292],[17.0309662,51.1247259],[17.0309538,51.1247226],[17.0309415,51.1247193],[17.0309291,51.124716],[17.0309167,51.1247127],[17.0309043,51.1247094],[17.030892,51.1247062],[17.0308796,51.1247029],[17.0308672,51.1246996],[17.0308548,51.1246963],[17.0308425,51.124693],[17.0308301,51.1246897],[17.0308177,51.1246864],[17.0308055,51.1246822],[17.0307934,51.1246779],[17.0307812,51.1246737],[17.0307691,51.1246695],[17.0307569,51.1246652],[17.0307448,51.124661],[17.0307326,51.1246568],[17.0307205,51.1246525],[17.0307083,51.1246483],[17.0306962,51.124644],[17.030684,51.1246398],[17.0306719,51.1246356],[17.0306597,51.1246313],[17.0306476,51.1246271],[17.0306354,51.1246229],[17.0306233,51.1246186],[17.0306111,51.1246144],[17.0306,51.1246091],[17.0305889,51.1246038],[17.0305778,51.1245985],[17.0305667,51.1245932],[17.0305556,51.1245879],[17.0305445,51.1245826],[17.0305333,51.1245774],[17.0305222,51.1245721],[17.0305111,51.1245668],[17.0305,51.1245615],[17.0304889,51.1245562],[17.0304778,51.1245509],[17.0304667,51.1245456],[17.0304556,51.1245403],[17.0304449,51.1245352],[17.0304343,51.1245301],[17.0304236,51.124525],[17.0304129,51.1245198],[17.0304022,51.1245147],[17.0303564,51.1245195]]}},{"type":"Feature","properties":{"layer":"roads"},"geometry":{"type":"LineString","coordinates":[[17.0310471,51.1247545],[17.0310961,51.1247604],[17.0311372,51.124762],[17.0311508,51.1247625],[17.0311645,51.1247631],[17.0311782,51.1247636],[17.0311919,51.1247642],[17.0312056,51.1247647],[17.0312193,51.1247653],[17.031233,51.1247659],[17.0312467,51.1247664],[17.0312604,51.124767],[17.031274,51.1247675],[17.0312877,51.1247681],[17.0313014,51.1247686],[17.0313151,51.1247691],[17.0313288,51.1247697],[17.0313424,51.1247696],[17.0313561,51.1247696],[17.0313697,51.1247695],[17.0313834,51.1247695],[17.031397,51.1247694],[17.0314106,51.1247693],[17.0314243,51.1247693],[17.0314379,51.1247692],[17.0314513,51.1247685],[17.0314647,51.1247679],[17.0314781,51.1247673],[17.0314915,51.1247666],[17.0315049,51.124766],[17.0315182,51.1247653],[17.0315696,51.1247615]]}},{"type":"Feature","properties":{"layer":"roads"},"geometry":{"type":"LineString","coordinates":[[17.0326806,51.1244673],[17.0326446,51.1244438],[17.032641,51.1244359],[17.0326373,51.1244281],[17.0326337,51.1244202],[17.03263,51.1244123],[17.0326318,51.1244042],[17.0326335,51.1243961],[17.0326353,51.1243879],[17.032637,51.1243798],[17.0326439,51.1243728],[17.0326627,51.1243454]]}},{"type":"Feature","properties":{"layer":"roads"},"geometry":{"type":"LineString","coordinates":[[17.0326806,51.1244673],[17.0326396,51.1244885],[17.0326298,51.1244934],[17.0326201,51.1244983],[17.0326088,51.1245035],[17.0325974,51.1245088],[17.0325861,51.124514],[17.0325747,51.1245193],[17.0325634,51.1245245],[17.032552,51.1245298],[17.0325407,51.124535],[17.0325293,51.1245403],[17.032518,51.1245455],[17.0325067,51.1245507],[17.0324953,51.124556],[17.032484,51.1245612],[17.0324726,51.1245665],[17.0324613,51.1245717],[17.0324499,51.124577],[17.0324386,51.1245822],[17.0324272,51.1245875],[17.0324159,51.1245927],[17.0324031,51.1245966],[17.0323903,51.1246005],[17.0323775,51.1246043],[17.0323647,51.1246082],[17.0323519,51.1246121],[17.0323391,51.124616],[17.0323263,51.1246198],[17.0323135,51.1246237],[17.0323007,51.1246276],[17.0322879,51.1246315],[17.0322751,51.1246353],[17.0322623,51.1246392],[17.0322495,51.1246431],[17.0322363,51.1246463],[17.0322232,51.1246496],[17.03221,51.1246528],[17.0321968,51.1246561],[17.0321837,51.1246593],[17.0321705,51.1246626],[17.0321573,51.1246658],[17.0321442,51.1246691],[17.032131,51.1246723],[17.0321178,51.1246755],[17.0321046,51.1246788],[17.0320915,51.124682],[17.0320783,51.1246853],[17.0320651,51.1246885],[17.032052,51.1246918],[17.0320388,51.124695],[17.0320268,51.1246979],[17.0320148,51.1247009],[17.0320028,51.1247038],[17.0319908,51.1247068],[17.0319788,51.1247097],[17.0319657,51.1247118],[17.0319527,51.1247139],[17.0319396,51.124716],[17.0319265,51.1247181],[17.0319135,51.1247202],[17.0319004,51.1247223],[17.0318873,51.1247244],[17.0318743,51.1247266],[17.0318612,51.1247287],[17.0318482,51.1247308],[17.0318351,51.1247329],[17.031822,51.124735],[17.031809,51.1247371],[17.0317959,51.1247392],[17.0317818,51.1247408],[17.0317677,51.1247424],[17.0317536,51.124744],[17.0317395,51.1247455],[17.0317254,51.1247471],[17.0317113,51.1247487],[17.0316973,51.1247503],[17.0316832,51.1247519],[17.0316691,51.1247535],[17.031655,51.1247551],[17.0316409,51.1247566],[17.0316268,51.1247582],[17.0316127,51.1247598],[17.0315696,51.1247615]]}},{"type":"Feature","properties":{"layer":"roads"},"geometry":{"type":"LineString","coordinates":[[17.0326806,51.1244673],[17.0327261,51.1244821],[17.0327391,51.1244836],[17.0327892,51.1244799]]}},{"type":"Feature","properties":{"layer":"roads"},"geometry":{"type":"LineString","coordinates":[[17.0315696,51.1247615],[17.0316144,51.1247926],[17.0316183,51.1248003],[17.0316223,51.1248081],[17.0316262,51.1248159],[17.0316302,51.1248237],[17.0316341,51.1248315],[17.0316373,51.1248399],[17.0316404,51.1248482],[17.0316436,51.1248566],[17.0316563,51.1248901]]}},{"type":"Feature","properties":{"layer":"roads"},"geometry":{"type":"LineString","coordinates":[[17.0327546,51.1243296],[17.0327111,51.1243334],[17.0326627,51.1243454]]}},{"type":"Feature","properties":{"layer":"roads"},"geometry":{"type":"LineString","coordinates":[[17.0327546,51.1243296],[17.0327999,51.1243347],[17.0328113,51.1243364],[17.0328202,51.1243412],[17.0328291,51.124346],[17.032838,51.1243508],[17.0328469,51.1243556],[17.0328558,51.1243604],[17.0328602,51.1243672],[17.0328744,51.1243949]]}},{"type":"Feature","properties":{"layer":"roads"},"geometry":{"type":"LineString","coordinates":[[17.0302086,51.1241154],[17.0302282,51.1240902],[17.0302336,51.1240829],[17.0302391,51.1240755],[17.0302446,51.1240681],[17.03025,51.1240608],[17.0302555,51.1240534],[17.0302631,51.1240458],[17.0302708,51.1240383],[17.0302784,51.1240307],[17.030286,51.1240231],[17.0302936,51.1240156],[17.0303013,51.124008],[17.0303089,51.1240004],[17.0303165,51.1239929],[17.0303242,51.1239853],[17.0303318,51.1239778],[17.0303394,51.1239702],[17.030347,51.1239626],[17.0303547,51.1239551],[17.0303623,51.1239475],[17.0303719,51.1239413],[17.0303816,51.1239352],[17.0303913,51.123929],[17.0304009,51.1239229],[17.0304105,51.1239167],[17.0304202,51.1239106],[17.0304299,51.1239044],[17.0304395,51.1238982],[17.0304491,51.1238921],[17.0304588,51.1238859],[17.0304685,51.1238798],[17.0304781,51.1238736],[17.0304887,51.1238677],[17.0304994,51.1238618],[17.03051,51.1238559],[17.0305207,51.12385],[17.0305313,51.1238441],[17.0305419,51.1238382],[17.0305526,51.1238324],[17.0305632,51.1238265],[17.0305738,51.1238206],[17.0305845,51.1238147],[17.0305951,51.1238088],[17.0306058,51.1238029],[17.0306164,51.123797],[17.0306283,51.1237929],[17.0306401,51.1237888],[17.030652,51.1237848],[17.0306639,51.1237807],[17.0306757,51.1237766],[17.0306876,51.1237725],[17.0306994,51.1237684],[17.0307113,51.1237643],[17.0307552,51.1237446]]}},{"type":"Feature","properties":{"layer":"roads"},"geometry":{"type":"LineString","coordinates":[[17.0302086,51.1241154],[17.0301938,51.1241501],[17.0301907,51.1241577],[17.0301875,51.1241653],[17.0301844,51.1241729],[17.0301824,51.1241815],[17.0301805,51.1241902],[17.0301785,51.1241988],[17.0301765,51.1242074],[17.0301746,51.1242161],[17.0301726,51.1242247],[17.0301706,51.1242333],[17.0301686,51.1242419],[17.0301667,51.1242506],[17.0301647,51.1242592],[17.0301627,51.1242678],[17.0301608,51.1242765],[17.0301588,51.1242851],[17.0301614,51.1242933],[17.0301639,51.1243015],[17.0301665,51.1243097],[17.0301691,51.1243178],[17.0301717,51.124326],[17.0301756,51.1243572]]}},{"type":"Feature","properties":{"layer":"roads"},"geometry":{"type":"LineString","coordinates":[[17.0296005,51.124707],[17.0296425,51.1246929],[17.0296557,51.1246925],[17.0296688,51.124692],[17.029682,51.1246916],[17.0296951,51.1246911],[17.0297394,51.1246948]]}},{"type":"Feature","properties":{"layer":"roads"},"geometry":{"type":"LineString","coordinates":[[17.0296005,51.124707],[17.0295419,51.1247239],[17.0295291,51.1247275],[17.0295186,51.1247314],[17.0295082,51.1247353],[17.0294967,51.1247396],[17.0294853,51.1247439],[17.0294738,51.1247482],[17.0294623,51.1247525],[17.0294262,51.1247725]]}},{"type":"Feature","properties":{"layer":"roads"},"geometry":{"type":"LineString","coordinates":[[17.0315538,51.1236385],[17.0315422,51.1236086],[17.0315389,51.1236003],[17.0315356,51.123592],[17.0315322,51.1235837],[17.0315289,51.1235754],[17.0315256,51.1235671],[17.0315223,51.1235587],[17.031519,51.1235504],[17.0315156,51.1235421],[17.0315123,51.1235338],[17.031509,51.1235255],[17.0315057,51.1235172],[17.0315023,51.1235089],[17.031499,51.1235006],[17.0314957,51.1234923],[17.0314909,51.1234843],[17.0314861,51.1234763],[17.0314813,51.1234683],[17.0314765,51.1234603],[17.0314718,51.1234523],[17.031467,51.1234443],[17.0314622,51.1234363],[17.0314574,51.1234283],[17.0314526,51.1234203],[17.0314478,51.1234123],[17.031443,51.1234042],[17.0314382,51.1233962],[17.0314334,51.1233882],[17.0314286,51.1233802],[17.0314238,51.1233722],[17.0314191,51.1233642],[17.0314143,51.1233562],[17.0314095,51.1233482],[17.0314047,51.1233402],[17.0313999,51.1233322],[17.0313944,51.1233243],[17.0313889,51.1233164],[17.0313834,51.1233085],[17.0313779,51.1233005],[17.0313724,51.1232926],[17.0313669,51.1232847],[17.0313614,51.1232768],[17.0313559,51.1232689],[17.0313504,51.123261],[17.0313449,51.1232531],[17.0313394,51.1232451],[17.0313339,51.1232372],[17.0313284,51.1232293],[17.0313229,51.1232214],[17.031315,51.1232142],[17.0313071,51.1232069],[17.0312992,51.1231997],[17.0312913,51.1231924],[17.0312834,51.1231852],[17.0312756,51.1231779],[17.0312677,51.1231707],[17.0312598,51.1231634],[17.0312519,51.1231562],[17.031244,51.1231489],[17.0312132,51.123124]]}},{"type":"Feature","properties":{"layer":"roads"},"geometry":{"type":"LineString","coordinates":[[17.0315538,51.1236385],[17.0314999,51.123641],[17.0314861,51.1236409],[17.0314722,51.1236407],[17.0314583,51.1236405],[17.0314444,51.1236403],[17.0314305,51.1236401],[17.0314162,51.1236403],[17.0314019,51.1236405],[17.0313876,51.1236407],[17.0313733,51.1236409],[17.031359,51.1236411],[17.0313447,51.1236413],[17.0313304,51.1236415],[17.0313161,51.1236417],[17.0313018,51.1236419],[17.0312875,51.1236421],[17.0312742,51.1236435],[17.0312609,51.1236449],[17.0312476,51.1236462],[17.0312343,51.1236476],[17.031221,51.123649],[17.0312077,51.1236504],[17.0311944,51.1236518],[17.0311811,51.1236532],[17.0311678,51.1236545],[17.0311545,51.1236559],[17.0311412,51.1236573],[17.0311286,51.1236597],[17.031116,51.1236621],[17.0311034,51.1236645],[17.0310908,51.1236669],[17.0310783,51.1236693],[17.0310657,51.1236717],[17.0310164,51.1236758]]}},{"type":"Feature","properties":{"layer":"roads"},"geometry":{"type":"LineString","coordinates":[[17.0312132,51.123124],[17.0312372,51.1230988],[17.0312391,51.1230899],[17.0312411,51.123081],[17.0312405,51.123075],[17.0312399,51.123069],[17.0312393,51.123063],[17.0312368,51.1230572],[17.0312343,51.1230514],[17.0312318,51.1230456],[17.0312275,51.1230402],[17.0312232,51.1230349],[17.0312189,51.1230295],[17.031213,51.1230248],[17.0312071,51.12302],[17.0312012,51.1230153],[17.0311939,51.1230114],[17.0311867,51.1230074],[17.0311653,51.1229988],[17.0310976,51.1229623]]}},{"type":"Feature","properties":{"layer":"roads"},"geometry":{"type":"LineString","coordinates":[[17.0312132,51.123124],[17.0311862,51.1231484],[17.0311784,51.123152],[17.0311707,51.1231556],[17.031162,51.1231581],[17.0311534,51.1231607],[17.0311447,51.1231632],[17.0311354,51.1231646],[17.031126,51.1231661],[17.0311167,51.1231675],[17.0311071,51.1231677],[17.0310533,51.1231671]]}},{"type":"Feature","properties":{"layer":"roads"},"geometry":{"type":"LineString","coordinates":[[17.0312132,51.123124],[17.0311754,51.1231071],[17.0311647,51.1231018],[17.031116,51.1230865]]}},{"type":"Feature","properties":{"layer":"roads"},"geometry":{"type":"LineString","coordinates":[[17.0303564,51.1245195],[17.0303403,51.1244806],[17.0303302,51.1244747],[17.03032,51.1244687],[17.0303099,51.1244627],[17.0302997,51.1244568],[17.0302895,51.1244508],[17.0302794,51.1244449],[17.0302692,51.1244389],[17.0302591,51.1244329],[17.030249,51.124427],[17.0302388,51.124421],[17.0302322,51.1244132],[17.0302256,51.1244054],[17.030219,51.1243975],[17.0302124,51.1243897],[17.0302058,51.1243819],[17.0301756,51.1243572]]}},{"type":"Feature","properties":{"layer":"roads"},"geometry":{"type":"LineString","coordinates":[[17.0307552,51.1237446],[17.0307454,51.1237144],[17.0307451,51.1237069],[17.0307468,51.123698],[17.0307484,51.1236891],[17.0307501,51.1236801],[17.0307518,51.1236712],[17.0307534,51.1236623],[17.0307551,51.1236534],[17.0307596,51.1236449],[17.0307641,51.1236364],[17.0307822,51.1236023]]}},{"type":"Feature","properties":{"layer":"roads"},"geometry":{"type":"LineString","coordinates":[[17.0307552,51.1237446],[17.0307979,51.1237375],[17.0308106,51.1237338],[17.0308234,51.1237302],[17.0308361,51.1237265],[17.0308488,51.1237229],[17.0308616,51.1237192],[17.0308743,51.1237155],[17.0308871,51.1237119],[17.0308998,51.1237082],[17.0309126,51.1237046],[17.0309253,51.1237009],[17.0309381,51.1236973],[17.0309508,51.1236936],[17.0309637,51.1236911],[17.0309765,51.1236887],[17.0310164,51.1236758]]}},{"type":"Feature","properties":{"layer":"roads"},"geometry":{"type":"LineString","coordinates":[[17.0299571,51.1248968],[17.0299199,51.1248776],[17.0299082,51.1248734],[17.0298964,51.1248693],[17.0298847,51.1248651],[17.0298752,51.1248594],[17.0298656,51.1248536],[17.0298561,51.1248479],[17.0298466,51.1248421],[17.029837,51.1248364],[17.0298275,51.1248306],[17.0298206,51.124824],[17.0298137,51.1248174],[17.0298068,51.1248109],[17.0298,51.1248043],[17.0297931,51.1247977],[17.0297862,51.1247911],[17.0297817,51.1247842],[17.0297772,51.1247773],[17.0297727,51.1247703],[17.0297682,51.1247634],[17.0297637,51.1247565],[17.0297609,51.1247477],[17.0297581,51.124739],[17.0297553,51.1247302],[17.0297525,51.1247215],[17.0297394,51.1246948]]}},{"type":"Feature","properties":{"layer":"roads"},"geometry":{"type":"LineString","coordinates":[[17.0299571,51.1248968],[17.0300024,51.1249011],[17.0300146,51.1249028],[17.0300267,51.1249044],[17.0300389,51.1249061],[17.030051,51.1249078],[17.0300636,51.1249079],[17.0300761,51.124908],[17.0300886,51.1249082],[17.0301012,51.1249083],[17.0301137,51.1249084],[17.0301263,51.1249085],[17.03014,51.1249068],[17.0301538,51.1249051],[17.0301675,51.1249035],[17.0301813,51.1249018],[17.030195,51.1249001],[17.0302068,51.1248971],[17.0302186,51.1248941],[17.0302305,51.124891],[17.0302423,51.124888],[17.0302541,51.124885],[17.0302641,51.1248808],[17.0302741,51.1248767],[17.0302841,51.1248725],[17.0302942,51.1248684],[17.0303042,51.1248643],[17.0303142,51.1248601],[17.030324,51.1248539],[17.0303338,51.1248477],[17.0303435,51.1248416],[17.0303533,51.1248354],[17.0303631,51.1248292],[17.0303701,51.1248226],[17.0303772,51.1248161],[17.0303842,51.1248095],[17.0303913,51.124803],[17.0303983,51.1247964],[17.0304034,51.1247889],[17.0304085,51.1247815],[17.0304136,51.124774],[17.0304187,51.1247666],[17.0304238,51.1247591],[17.0304268,51.1247505],[17.0304297,51.1247419],[17.0304327,51.1247332],[17.0304356,51.1247246],[17.0304386,51.124716],[17.0304387,51.124707],[17.0304388,51.1246981],[17.0304389,51.1246891],[17.030439,51.1246802],[17.0304391,51.1246712],[17.0304373,51.1246642],[17.0304354,51.1246572],[17.0304336,51.1246502],[17.0304318,51.1246432],[17.0304279,51.1246354],[17.0304241,51.1246277],[17.0304202,51.1246199],[17.0304099,51.1246022],[17.030395,51.1245798],[17.03039,51.1245723],[17.0303804,51.124566],[17.0303708,51.1245596],[17.0303564,51.1245195]]}},{"type":"Feature","properties":{"layer":"roads"},"geometry":{"type":"LineString","coordinates":[[17.0303564,51.1245195],[17.0303099,51.1245235],[17.0302986,51.124518],[17.0302874,51.1245126],[17.0302762,51.1245072],[17.0302646,51.1245038],[17.0302531,51.1245003],[17.0302415,51.1244969],[17.0302299,51.1244935],[17.0302184,51.12449],[17.0302068,51.1244866],[17.0301931,51.1244846],[17.0301794,51.1244826],[17.0301657,51.1244806],[17.030152,51.1244786],[17.0301383,51.1244766],[17.0301251,51.1244765],[17.0301119,51.1244764],[17.0300986,51.1244763],[17.0300854,51.1244762],[17.0300722,51.1244761],[17.030059,51.124476],[17.030045,51.1244778],[17.0300311,51.1244796],[17.0300171,51.1244815],[17.0300032,51.1244833],[17.0299892,51.1244851],[17.0299775,51.1244881],[17.0299657,51.124491],[17.0299539,51.124494],[17.0299422,51.124497],[17.0299309,51.1245015],[17.0299197,51.1245061],[17.0299084,51.1245106],[17.0298971,51.1245152],[17.0298859,51.1245197],[17.0298746,51.1245243],[17.0298649,51.1245304],[17.0298552,51.1245365],[17.0298454,51.1245427],[17.0298357,51.1245488],[17.029826,51.1245549],[17.0298184,51.1245621],[17.0298109,51.1245692],[17.0298033,51.1245764],[17.0297958,51.1245835],[17.0297882,51.1245907],[17.0297826,51.1245988],[17.0297771,51.124607],[17.0297715,51.1246151],[17.029766,51.1246232],[17.0297631,51.1246311],[17.0297602,51.124639],[17.0297572,51.1246468],[17.0297543,51.1246547],[17.0297514,51.1246626],[17.0297394,51.1246948]]}},{"type":"Feature","properties":{"layer":"roads"},"geometry":{"type":"LineString","coordinates":[[17.0334375,51.1245916],[17.0334232,51.1245588],[17.033423,51.1245506],[17.0334228,51.1245424],[17.0334225,51.1245341],[17.0334223,51.1245259],[17.0334123,51.12452],[17.0334024,51.1245141],[17.0333924,51.1245082],[17.0333824,51.1245022],[17.0333725,51.1244963],[17.0333625,51.1244904],[17.0333525,51.1244845],[17.0333426,51.1244786],[17.0333326,51.1244727],[17.0333226,51.1244668],[17.0333127,51.1244609],[17.0333027,51.1244549],[17.0332927,51.124449],[17.0332828,51.1244431],[17.0332728,51.1244372],[17.0332611,51.1244336],[17.0332494,51.12443],[17.0332376,51.1244263],[17.0332259,51.1244227],[17.0332142,51.1244191],[17.0332025,51.1244155],[17.0331908,51.1244119],[17.0331791,51.1244083],[17.0331673,51.1244046],[17.0331556,51.124401],[17.0331439,51.1243974],[17.0331313,51.1243951],[17.0331187,51.1243928],[17.0331061,51.1243905],[17.0330935,51.1243881],[17.0330809,51.1243858],[17.0330683,51.1243835],[17.0330557,51.1243812],[17.0330424,51.1243815],[17.0330292,51.1243818],[17.0330159,51.1243821],[17.0330026,51.1243824],[17.0329894,51.1243827],[17.0329761,51.124383],[17.0329621,51.1243846],[17.0329481,51.1243863],[17.0329341,51.1243879],[17.03292,51.1243896],[17.0328744,51.1243949]]}},{"type":"Feature","properties":{"layer":"roads"},"geometry":{"type":"LineString","coordinates":[[17.0328744,51.1243949],[17.032874,51.124424],[17.032873,51.1244314],[17.0328667,51.1244377],[17.0328605,51.124444],[17.0328542,51.1244502],[17.032848,51.1244565],[17.0328417,51.1244628],[17.0328316,51.1244666],[17.0327892,51.1244799]]}},{"type":"Feature","properties":{"layer":"roads"},"geometry":{"type":"LineString","coordinates":[[17.0310164,51.1236758],[17.0310056,51.1236434],[17.0309966,51.1236368],[17.0309877,51.1236302],[17.0309787,51.1236236],[17.0309698,51.123617],[17.0309608,51.1236103],[17.030925,51.1235839]]}},{"type":"Feature","properties":{"layer":"roads"},"geometry":{"type":"LineString","coordinates":[[17.0310533,51.1231671],[17.031089,51.1231362],[17.0310964,51.123129],[17.031097,51.1231206],[17.0310976,51.1231122],[17.031116,51.1230865]]}},{"type":"Feature","properties":{"layer":"roads"},"geometry":{"type":"LineString","coordinates":[[17.0310533,51.1231671],[17.0310265,51.1231908],[17.0310235,51.1231994],[17.0310206,51.1232081],[17.0310177,51.1232167],[17.0310197,51.1232248],[17.0310217,51.1232329],[17.0310237,51.123241],[17.0310257,51.1232491],[17.0310226,51.1232557],[17.0310194,51.1232622],[17.0310163,51.1232688],[17.031008,51.1233002]]}},{"type":"Feature","properties":{"layer":"roads"},"geometry":{"type":"LineString","coordinates":[[17.0310533,51.1231671],[17.0310152,51.1231519],[17.0310069,51.1231485],[17.0309999,51.1231441],[17.0309928,51.1231397],[17.0309858,51.1231353],[17.0309803,51.1231301],[17.0309748,51.123125],[17.0309693,51.1231198],[17.0309656,51.1231141],[17.030962,51.1231083],[17.0309583,51.1231026],[17.0309566,51.1230965],[17.0309549,51.1230903],[17.0309532,51.1230842],[17.0309535,51.123078],[17.0309539,51.1230718],[17.0309542,51.1230656],[17.0309565,51.1230596],[17.0309588,51.1230535],[17.0309611,51.1230475],[17.0309654,51.1230419],[17.0309696,51.1230362],[17.0309739,51.1230306],[17.0309799,51.1230257],[17.030986,51.1230207],[17.030992,51.1230158],[17.0309995,51.1230117],[17.0310069,51.1230077],[17.0310144,51.1230036],[17.0310231,51.1230006],[17.0310317,51.1229975],[17.0310404,51.1229945],[17.0310498,51.1229927],[17.0310593,51.1229908],[17.0310687,51.122989],[17.0310786,51.1229884],[17.0310976,51.1229623]]}},{"type":"Feature","properties":{"layer":"roads"},"geometry":{"type":"LineString","coordinates":[[17.0310976,51.1229623],[17.0310992,51.1230205],[17.0310994,51.1230288],[17.0310997,51.123037],[17.031116,51.1230865]]}},{"type":"Feature","properties":{"layer":"roads"},"geometry":{"type":"LineString","coordinates":[[17.0297115,51.1250725],[17.0297611,51.1250719],[17.0297734,51.1250711],[17.0297856,51.1250704],[17.0297979,51.1250696],[17.0298098,51.1250724],[17.0298217,51.1250752],[17.0298337,51.125078],[17.0298456,51.1250808],[17.0298565,51.1250849],[17.0298674,51.1250889],[17.0298782,51.125093],[17.0298891,51.125097],[17.0299,51.1251011],[17.0299426,51.1250905]]}},{"type":"Feature","properties":{"layer":"roads"},"geometry":{"type":"LineString","coordinates":[[17.0297115,51.1250725],[17.0296597,51.1250636],[17.0296471,51.1250595],[17.0296346,51.1250555],[17.0296221,51.1250515],[17.0296095,51.1250474],[17.0295997,51.1250419],[17.0295898,51.1250364],[17.0295799,51.1250309],[17.0295701,51.1250254],[17.0295617,51.12502],[17.0295532,51.1250145],[17.0295447,51.1250091],[17.0295363,51.1250037],[17.0295279,51.1249982],[17.0295194,51.1249928],[17.0295099,51.1249863],[17.0295003,51.1249797],[17.0294908,51.1249732],[17.0294822,51.124968],[17.0294736,51.1249627],[17.0294651,51.1249575],[17.0294399,51.1249322]]}},{"type":"Feature","properties":{"layer":"roads"},"geometry":{"type":"LineString","coordinates":[[17.0297115,51.1250725],[17.0296874,51.1251043],[17.0296795,51.1251103],[17.0296716,51.1251163],[17.0296607,51.1251173],[17.0296498,51.1251182],[17.0296389,51.1251192],[17.029628,51.1251202],[17.0296145,51.1251203],[17.029601,51.1251204],[17.0295874,51.1251206],[17.0295739,51.1251207],[17.0295604,51.1251208],[17.0295471,51.1251223],[17.0295337,51.1251239],[17.0295204,51.1251254],[17.0295071,51.125127],[17.0294942,51.1251282],[17.0294813,51.1251295],[17.0294684,51.1251307],[17.0294555,51.1251319],[17.0294431,51.1251342],[17.0294308,51.1251365],[17.0294185,51.1251388],[17.0294061,51.1251411],[17.0293932,51.1251437],[17.0293452,51.1251554]]}},{"type":"Feature","properties":{"layer":"roads"},"geometry":{"type":"LineString","coordinates":[[17.0293452,51.1251554],[17.029296,51.1251415],[17.0292853,51.1251388],[17.0292747,51.1251362],[17.0292641,51.1251336],[17.0292534,51.1251309],[17.029243,51.1251253],[17.0292326,51.1251197],[17.0292221,51.1251141],[17.0292117,51.1251085],[17.0292013,51.1251029],[17.0291962,51.1250961],[17.029191,51.1250893],[17.0291859,51.1250824],[17.0291807,51.1250756],[17.0291756,51.1250688],[17.0291742,51.1250613],[17.0291586,51.1250291]]}},{"type":"Feature","properties":{"layer":"roads"},"geometry":{"type":"LineString","coordinates":[[17.0293452,51.1251554],[17.0293435,51.1251898],[17.0293413,51.1251974],[17.0293385,51.125205],[17.0293358,51.1252126],[17.029333,51.1252202],[17.0293219,51.1252506]]}},{"type":"Feature","properties":{"layer":"roads"},"geometry":{"type":"LineString","coordinates":[[17.0291586,51.1250291],[17.029111,51.1250264],[17.0290992,51.1250244],[17.0290874,51.1250224],[17.0290757,51.1250204],[17.0290639,51.1250184],[17.0290172,51.1250015]]}},{"type":"Feature","properties":{"layer":"roads"},"geometry":{"type":"LineString","coordinates":[[17.0291586,51.1250291],[17.029168,51.124997],[17.0291683,51.1249882],[17.0291745,51.1249804],[17.0291806,51.1249725],[17.0291868,51.1249646],[17.029193,51.1249568],[17.0291991,51.124949],[17.0292053,51.1249411],[17.0292139,51.124936],[17.0292226,51.1249308],[17.0292313,51.1249257],[17.0292399,51.1249206],[17.029252,51.1249192],[17.0292641,51.1249177],[17.0292762,51.1249163],[17.0292893,51.124915],[17.0293024,51.1249137],[17.0293154,51.1249124],[17.0293285,51.1249111],[17.0293418,51.1249135],[17.0293551,51.1249159],[17.0293684,51.1249184],[17.0293817,51.1249208],[17.029395,51.1249232],[17.0294399,51.1249322]]}},{"type":"Feature","properties":{"layer":"roads"},"geometry":{"type":"LineString","coordinates":[[17.0294399,51.1249322],[17.0294555,51.1249038],[17.029458,51.1248954],[17.0294604,51.124887],[17.0294628,51.1248787],[17.0294596,51.1248712],[17.0294563,51.1248636],[17.0294531,51.1248561],[17.0294499,51.1248485],[17.0294467,51.124841],[17.0294434,51.1248334],[17.0294402,51.1248259],[17.0294398,51.1248179],[17.0294395,51.1248099],[17.0294392,51.1248019],[17.0294262,51.1247725]]}},{"type":"Feature","properties":{"layer":"roads"},"geometry":{"type":"LineString","coordinates":[[17.0322758,51.1244592],[17.0322819,51.124487],[17.0322786,51.1244939],[17.0322754,51.1245008],[17.0322721,51.1245077],[17.0322641,51.1245145],[17.032256,51.1245213],[17.032248,51.1245281],[17.0322369,51.124532],[17.0322258,51.1245359],[17.0322147,51.1245397],[17.0322036,51.1245436],[17.03219,51.1245443],[17.0321765,51.124545],[17.0321629,51.1245457],[17.0321509,51.124543],[17.032139,51.1245402],[17.032127,51.1245375],[17.032115,51.1245348],[17.0321067,51.1245293],[17.0320983,51.1245237],[17.0320899,51.1245182],[17.0320816,51.1245127],[17.0320772,51.1245054],[17.0320729,51.1244982],[17.0320594,51.124471]]}},{"type":"Feature","properties":{"layer":"roads"},"geometry":{"type":"LineString","coordinates":[[17.0322758,51.1244592],[17.0322556,51.1244339],[17.0322467,51.1244276],[17.0322349,51.1244237],[17.032223,51.1244198],[17.0322112,51.124416],[17.0321994,51.1244121],[17.0321884,51.1244119],[17.0321774,51.1244118],[17.0321664,51.1244116],[17.0321554,51.1244114],[17.0321429,51.1244151],[17.0321304,51.1244188],[17.0321179,51.1244224],[17.0321054,51.1244261],[17.0320986,51.1244315],[17.0320917,51.1244369],[17.0320849,51.1244423],[17.0320594,51.124471]]}},{"type":"Feature","properties":{"layer":"roads"},"geometry":{"type":"LineString","coordinates":[[17.0301756,51.1243572],[17.0301301,51.1243588],[17.0301173,51.1243608],[17.0300663,51.1243688]]}},{"type":"Feature","properties":{"layer":"roads"},"geometry":{"type":"LineString","coordinates":[[17.0320594,51.124471],[17.0320116,51.1244777],[17.0319978,51.1244783],[17.0319852,51.1244821],[17.0319726,51.1244859],[17.0319599,51.1244898],[17.0319473,51.1244936],[17.0319347,51.1244974],[17.0319229,51.1244947],[17.0318758,51.1244838]]}},{"type":"Feature","properties":{"layer":"roads"},"geometry":{"type":"LineString","coordinates":[[17.0327892,51.1244799],[17.0327992,51.1245124],[17.0328012,51.1245201],[17.0328032,51.1245278],[17.0328065,51.1245356],[17.0328098,51.1245435],[17.0328131,51.1245513],[17.0328164,51.1245591],[17.0328197,51.1245669],[17.032823,51.1245748],[17.0328263,51.1245826],[17.0328298,51.124591],[17.0328334,51.1245994],[17.0328369,51.1246078],[17.0328405,51.1246162],[17.032844,51.1246246],[17.0328475,51.124633],[17.0328511,51.1246413],[17.0328546,51.1246497],[17.0328581,51.1246581],[17.0328723,51.1246917]]}},{"type":"Feature","properties":{"layer":"roads"},"geometry":{"type":"LineString","coordinates":[[17.0294262,51.1247725],[17.0293797,51.1247811],[17.029368,51.1247829],[17.0293562,51.1247847],[17.0293444,51.1247865],[17.0293312,51.1247852],[17.0293181,51.1247839],[17.029305,51.1247825],[17.0292918,51.1247812],[17.0292792,51.1247788],[17.0292665,51.1247763],[17.0292188,51.1247618]]}},{"type":"Feature","properties":{"layer":"roads"},"geometry":{"type":"LineString","coordinates":[[17.0299426,51.1250905],[17.0299644,51.1251488]]}},{"type":"Feature","properties":{"layer":"roads"},"geometry":{"type":"LineString","coordinates":[[17.031008,51.1233002],[17.030983,51.123329],[17.0309792,51.123336],[17.0309755,51.123343],[17.0309717,51.12335],[17.0309673,51.1233577],[17.0309629,51.1233654],[17.0309454,51.1233961]]}},{"type":"Feature","properties":{"layer":"roads"},"geometry":{"type":"LineString","coordinates":[[17.031008,51.1233002],[17.031054,51.1233053]]}},{"type":"Feature","properties":{"layer":"roads"},"geometry":{"type":"LineString","coordinates":[[17.0307822,51.1236023],[17.0309267,51.1234719]]}},{"type":"Feature","properties":{"layer":"roads"},"geometry":{"type":"LineString","coordinates":[[17.030925,51.1235839],[17.0309267,51.1234719]]}},{"type":"Feature","properties":{"layer":"roads"},"geometry":{"type":"LineString","coordinates":[[17.0309454,51.1233961],[17.0309267,51.1234719]]}},{"type":"Feature","properties":{"layer":"roads"},"geometry":{"type":"LineString","coordinates":[[17.031054,51.1233053],[17.0309267,51.1234719]]}},{"type":"Feature","properties":{"layer":"obstacles"},"geometry":{"type":"Polygon","coordinates":[[[17.0310628,51.1230289],[17.0310473,51.1230249],[17.0310409,51.1230152],[17.0310472,51.1230054],[17.0310627,51.1230014],[17.0310782,51.1230054],[17.0310846,51.1230151],[17.0310783,51.1230248],[17.0310628,51.1230289]]]}},{"type":"Feature","properties":{"layer":"obstacles"},"geometry":{"type":"Polygon","coordinates":[[[17.0311859,51.1230684],[17.0311704,51.1230644],[17.031164,51.1230547],[17.0311704,51.1230449],[17.0311858,51.1230409],[17.0312013,51.1230449],[17.0312078,51.1230546],[17.0312014,51.1230643],[17.0311859,51.1230684]]]}},{"type":"Feature","properties":{"layer":"obstacles"},"geometry":{"type":"Polygon","coordinates":[[[17.0310618,51.1231335],[17.0310463,51.1231295],[17.0310399,51.1231198],[17.0310463,51.1231101],[17.0310617,51.123106],[17.0310772,51.12311],[17.0310837,51.1231197],[17.0310773,51.1231295],[17.0310618,51.1231335]]]}},{"type":"Feature","properties":{"layer":"obstacles"},"geometry":{"type":"Polygon","coordinates":[[[17.0315221,51.1248886],[17.0315726,51.1248819],[17.0315593,51.124842],[17.0315091,51.1248486],[17.0315202,51.1248817],[17.0315221,51.1248886]]]}},{"type":"Feature","properties":{"layer":"obstacles"},"geometry":{"type":"Polygon","coordinates":[[[17.0300256,51.1243668],[17.0300372,51.124384],[17.0300504,51.124386],[17.0300636,51.1243794],[17.030058,51.124362],[17.0300491,51.1243562],[17.0300311,51.1243582],[17.0300256,51.1243668]]]}},{"type":"Feature","properties":{"layer":"boundary"},"geometry":{"type":"Polygon","coordinates":[[[17.0288618,51.1252335],[17.0290167,51.1252476],[17.0291821,51.1252477],[17.0293958,51.1252178],[17.0296409,51.1251794],[17.0299456,51.1251282],[17.0301865,51.1250895],[17.0315202,51.1248817],[17.0315091,51.1248486],[17.0315593,51.124842],[17.0316341,51.1248315],[17.0317211,51.1248192],[17.0317716,51.1248439],[17.0327262,51.124691],[17.033002,51.1246457],[17.0332914,51.1246019],[17.0333209,51.1245745],[17.0333277,51.1245395],[17.0333119,51.1245094],[17.0332137,51.124439],[17.0331846,51.1244273],[17.0331335,51.1244157],[17.0331439,51.1243974],[17.0331585,51.1243714],[17.0329728,51.1242079],[17.0329535,51.1241808],[17.0325689,51.1238412],[17.0321017,51.1234319],[17.0318552,51.1232158],[17.0318259,51.1231962],[17.0317972,51.1232106],[17.0315237,51.1229737],[17.0315278,51.1229594],[17.0315028,51.1229438],[17.0314448,51.1229127],[17.0313728,51.1228878],[17.0313269,51.1228819],[17.0310952,51.1228791],[17.0305296,51.122881],[17.0305002,51.1228867],[17.0304815,51.1228973],[17.0301712,51.1234162],[17.0297768,51.1240759],[17.0297695,51.1240885],[17.029762,51.1241034],[17.0296159,51.1243458],[17.0293652,51.1246396],[17.029239,51.1247783],[17.0288618,51.1252335]]]}}],"psm_processed":{"version":1,"origin":[17.030942759,51.124168696],"bridge_gap_m":50.0,"parallel_m":3.0,"junction_m":6.0,"dead_end_gap_m":25.0,"parts_before":1,"parts_after":1,"junctions_before":36,"junctions_after":35,"length_before":2155,"length_after":2148,"dead_ends_linked":4}}